
    {
      "objectName": "STARLINK-4072",
      "objectId": "2022-053AQ",
      "noradId": 52694,
      "epochUtc": "2026-03-16T19:20:03.746688Z",
      "meanMotionRevPerDay": 15.08845136,
      "eccentricity": 0.0001307,
      "inclinationDeg": 53.2169,
      "raanDeg": 112.1778,
      "argPerigeeDeg": 85.3598,
      "meanAnomalyDeg": 274.7544,
      "bstar": 0.000069834,
      "meanMotionDot": 0.00000824,
      "meanMotionDdot": 0,
      "elementSetNo": 999,
      "revAtEpoch": 21222
    },
    {
      "objectName": "STARLINK-4020",
      "objectId": "2022-053AZ",
      "noradId": 52703,
      "epochUtc": "2026-03-15T12:05:27.865536Z",
      "meanMotionRevPerDay": 15.08835455,
      "eccentricity": 0.00013589,
      "inclinationDeg": 53.2166,
      "raanDeg": 108.0333,
      "argPerigeeDeg": 89.937,
      "meanAnomalyDeg": 270.1777,
      "bstar": -7.61917e-7,
      "meanMotionDot": -0.000003,
      "meanMotionDdot": 0,
      "elementSetNo": 999,
      "revAtEpoch": 21091
    },
    {
      "objectName": "STARLINK-3999",
      "objectId": "2022-053BA",
      "noradId": 52704,
      "epochUtc": "2026-03-16T18:39:00.557856Z",
      "meanMotionRevPerDay": 15.0881708,
      "eccentricity": 0.0001471,
      "inclinationDeg": 53.2171,
      "raanDeg": 102.3064,
      "argPerigeeDeg": 90.8554,
      "meanAnomalyDeg": 269.2606,
      "bstar": 0.000022095,
      "meanMotionDot": 6.4e-7,
      "meanMotionDdot": 0,
      "elementSetNo": 999,
      "revAtEpoch": 21238
    },
    {
      "objectName": "STARLINK-3844",
      "objectId": "2022-053BB",
      "noradId": 52705,
      "epochUtc": "2026-03-16T18:23:05.322048Z",
      "meanMotionRevPerDay": 15.08835731,
      "eccentricity": 0.0001199,
      "inclinationDeg": 53.2157,
      "raanDeg": 102.3529,
      "argPerigeeDeg": 82.9907,
      "meanAnomalyDeg": 277.1222,
      "bstar": -0.000024165,
      "meanMotionDot": -0.00000672,
      "meanMotionDdot": 0,
      "elementSetNo": 999,
      "revAtEpoch": 21238
    },
    {
      "objectName": "STARLINK-4007",
      "objectId": "2022-053BD",
      "noradId": 52707,
      "epochUtc": "2026-03-15T19:41:10.345632Z",
      "meanMotionRevPerDay": 15.0883836,
      "eccentricity": 0.00013175,
      "inclinationDeg": 53.216,
      "raanDeg": 106.4837,
      "argPerigeeDeg": 87.0144,
      "meanAnomalyDeg": 273.0999,
      "bstar": 0.000005070752,
      "meanMotionDot": -0.00000207,
      "meanMotionDdot": 0,
      "elementSetNo": 999,
      "revAtEpoch": 21230
    },
    {
      "objectName": "STARLINK-4213",
      "objectId": "2022-062AU",
      "noradId": 52872,
      "epochUtc": "2026-03-16T17:20:51.660096Z",
      "meanMotionRevPerDay": 15.08852247,
      "eccentricity": 0.0001118,
      "inclinationDeg": 53.2195,
      "raanDeg": 342.5178,
      "argPerigeeDeg": 90.1963,
      "meanAnomalyDeg": 269.9157,
      "bstar": 0.00014369,
      "meanMotionDot": 0.00002,
      "meanMotionDdot": 0,
      "elementSetNo": 999,
      "revAtEpoch": 20712
    },
    {
      "objectName": "STARLINK-4193",
      "objectId": "2022-062AX",
      "noradId": 52875,
      "epochUtc": "2026-03-16T18:33:41.937984Z",
      "meanMotionRevPerDay": 15.0882544,
      "eccentricity": 0.0001361,
      "inclinationDeg": 53.2197,
      "raanDeg": 342.3195,
      "argPerigeeDeg": 89.0574,
      "meanAnomalyDeg": 271.0574,
      "bstar": -0.00012489,
      "meanMotionDot": -0.00002274,
      "meanMotionDdot": 0,
      "elementSetNo": 999,
      "revAtEpoch": 20713
    },
    {
      "objectName": "STARLINK-4331",
      "objectId": "2022-077D",
      "noradId": 53046,
      "epochUtc": "2026-03-16T01:41:08.075904Z",
      "meanMotionRevPerDay": 15.0566193,
      "eccentricity": 0.00014456,
      "inclinationDeg": 97.6018,
      "raanDeg": 257.6065,
      "argPerigeeDeg": 83.2864,
      "meanAnomalyDeg": 276.8527,
      "bstar": 0.000035923794,
      "meanMotionDot": 0.00000458,
      "meanMotionDdot": 0,
      "elementSetNo": 999,
      "revAtEpoch": 20195
    },
    {
      "objectName": "STARLINK-4343",
      "objectId": "2022-077H",
      "noradId": 53050,
      "epochUtc": "2026-03-16T18:49:52.973760Z",
      "meanMotionRevPerDay": 15.05661005,
      "eccentricity": 0.0001909,
      "inclinationDeg": 97.6012,
      "raanDeg": 258.1864,
      "argPerigeeDeg": 90.0864,
      "meanAnomalyDeg": 270.0582,
      "bstar": -0.00016842,
      "meanMotionDot": -0.00002491,
      "meanMotionDdot": 0,
      "elementSetNo": 999,
      "revAtEpoch": 20204
    },
    {
      "objectName": "STARLINK-4346",
      "objectId": "2022-077AG",
      "noradId": 53073,
      "epochUtc": "2026-03-16T02:13:10.443936Z",
      "meanMotionRevPerDay": 15.20567666,
      "eccentricity": 0.0004994,
      "inclinationDeg": 97.6375,
      "raanDeg": 263.2961,
      "argPerigeeDeg": 188.9364,
      "meanAnomalyDeg": 171.1782,
      "bstar": 0.00024170934,
      "meanMotionDot": 0.00005222,
      "meanMotionDdot": 0,
      "elementSetNo": 999,
      "revAtEpoch": 20227
    },
    {
      "objectName": "STARLINK-4324",
      "objectId": "2022-077AU",
      "noradId": 53085,
      "epochUtc": "2026-03-16T17:50:05.097120Z",
      "meanMotionRevPerDay": 15.05645396,
      "eccentricity": 0.000144,
      "inclinationDeg": 97.6019,
      "raanDeg": 258.1241,
      "argPerigeeDeg": 86.585,
      "meanAnomalyDeg": 273.5541,
      "bstar": -0.000031906,
      "meanMotionDot": -0.00000521,
      "meanMotionDdot": 0,
      "elementSetNo": 999,
      "revAtEpoch": 20204
    },
    {
      "objectName": "STARLINK-4145",
      "objectId": "2022-083F",
      "noradId": 53137,
      "epochUtc": "2026-03-16T13:26:20.459328Z",
      "meanMotionRevPerDay": 15.08835141,
      "eccentricity": 0.0001241,
      "inclinationDeg": 53.2162,
      "raanDeg": 143.2791,
      "argPerigeeDeg": 91.2159,
      "meanAnomalyDeg": 268.8975,
      "bstar": -0.000041009,
      "meanMotionDot": -0.0000094,
      "meanMotionDdot": 0,
      "elementSetNo": 999,
      "revAtEpoch": 20225
    },
    {
      "objectName": "STARLINK-4185",
      "objectId": "2022-083H",
      "noradId": 53139,
      "epochUtc": "2026-03-15T21:16:35.569920Z",
      "meanMotionRevPerDay": 15.08836833,
      "eccentricity": 0.00011189,
      "inclinationDeg": 53.2169,
      "raanDeg": 146.3033,
      "argPerigeeDeg": 83.8905,
      "meanAnomalyDeg": 276.2215,
      "bstar": -0.00020777419,
      "meanMotionDot": -0.00003593,
      "meanMotionDdot": 0,
      "elementSetNo": 999,
      "revAtEpoch": 20215
    }