STARLINK-4072           
1 52694U 22053AQ  26075.80559892  .00000824  00000+0  69834-4 0  9991
2 52694  53.2169 112.1778 0001307  85.3598 274.7544 15.08845136212223
STARLINK-4020           
1 52703U 22053AZ  26074.50379474 -.00000300  00000+0 -76192-6 0  9992
2 52703  53.2166 108.0333 0001358  89.9370 270.1777 15.08835455210911
STARLINK-3999           
1 52704U 22053BA  26075.77708979  .00000064  00000+0  22095-4 0  9995
2 52704  53.2171 102.3064 0001471  90.8554 269.2606 15.08817080212384
STARLINK-3844           
1 52705U 22053BB  26075.76603382 -.00000672  00000+0 -24165-4 0  9994
2 52705  53.2157 102.3529 0001199  82.9907 277.1222 15.08835731212381
STARLINK-4007           
1 52707U 22053BD  26074.82025863 -.00000207  00000+0  50708-5 0  9990
2 52707  53.2160 106.4837 0001317  87.0144 273.0999 15.08838360212304
STARLINK-4213           
1 52872U 22062AU  26075.72282014  .00002000  00000+0  14369-3 0  9999
2 52872  53.2195 342.5178 0001118  90.1963 269.9157 15.08852247207123
STARLINK-4193           
1 52875U 22062AX  26075.77340206 -.00002274  00000+0 -12489-3 0  9991
2 52875  53.2197 342.3195 0001361  89.0574 271.0574 15.08825440207133
STARLINK-4331           
1 53046U 22077D   26075.07023236  .00000458  00000+0  35924-4 0  9992
2 53046  97.6018 257.6065 0001445  83.2864 276.8527 15.05661930201957
STARLINK-4343           
1 53050U 22077H   26075.78464090 -.00002491  00000+0 -16842-3 0  9990
2 53050  97.6012 258.1864 0001909  90.0864 270.0582 15.05661005202041
STARLINK-4346           
1 53073U 22077AG  26075.09248199  .00005222  00000+0  24171-3 0  9996
2 53073  97.6375 263.2961 0004994 188.9364 171.1782 15.20567666202275
STARLINK-4324           
1 53085U 22077AU  26075.74311455 -.00000521  00000+0 -31906-4 0  9991
2 53085  97.6019 258.1241 0001440  86.5850 273.5541 15.05645396202048
STARLINK-4145           
1 53137U 22083F   26075.55995902 -.00000940  00000+0 -41009-4 0  9990
2 53137  53.2162 143.2791 0001241  91.2159 268.8975 15.08835141202254
STARLINK-4185           
1 53139U 22083H   26074.88652280 -.00003593  00000+0 -20777-3 0  9991
2 53139  53.2169 146.3033 0001118  83.8905 276.2215 15.08836833202153
